NASA/JPL Horizons API v1.2 — Moon (301), topocentric, fetched 2026-06-11 (Horizons run stamp: 2026-Jun-10 22:23:40 Pasadena)
Target: Moon (301) {DE441} | Center: coord@399 GEODETIC 121.0359,14.5794,0.02 (PCSO Mandaluyong)
Start: 2025-Jun-11 13:00 UT | Stop: 2026-Jun-11 13:00 UT | Step: 1 d | QUANTITIES=4,10,20 | airless apparent az/el, ANG DEG, delta in AU
Columns: Date__(UT)__HR:MN:SC.fff  [moon-presence flag]  Azi(a-app)  Elev  Illu%  delta(AU)  deldot(km/s)
$$SOE
 2026-Apr-13 13:00:02.880      44.445406 -85.342394   18.85373  0.00260632444780  -0.0930185
 2026-Apr-14 13:00:02.880     320.692616 -78.038049   11.29460  0.00256644998894  -0.0107298
 2026-Apr-15 13:00:02.880     309.013239 -65.727901    5.32692  0.00252682927816   0.0768431
 2026-Apr-16 13:00:02.880     304.861990 -52.702308    1.45446  0.00249052719344   0.1649830
 2026-Apr-17 13:00:02.880     302.491496 -39.253721    0.10958  0.00246034989272   0.2477086
 2026-Apr-18 13:00:02.880     300.720396 -25.526760    1.56037  0.00243846183127   0.3184641
 2026-Apr-19 13:00:02.880     299.124369 -11.662988    5.83279  0.00242608396065   0.3711788
 2026-Apr-20 13:00:02.880  m  297.471247   2.194105   12.68152  0.00242336767953   0.4013814
 2026-Apr-21 13:00:02.880  m  295.561650  15.910951   21.62445  0.00242948941329   0.4069673
 2026-Apr-22 13:00:02.880  m  293.134537  29.372192   32.02648  0.00244293229604   0.3883705
 2026-Apr-23 13:00:02.880  m  289.725630  42.474501   43.19815  0.00246185812621   0.3481711
 2026-Apr-24 13:00:02.880  m  284.291975  55.087677   54.47756  0.00248445747295   0.2903872
 2026-Apr-25 13:00:02.880  m  273.841161  66.900799   65.28058  0.00250919650377   0.2197308
 2026-Apr-26 13:00:02.880  m  247.302805  76.589701   75.12224  0.00253492881406   0.1410065
 2026-Apr-27 13:00:02.880  m  188.775076  78.321393   83.61982  0.00256088322289   0.0587071
 2026-Apr-28 13:00:02.880  m  153.480840  70.397624   90.48853  0.00258656319525  -0.0232176
 2026-Apr-29 13:00:02.880  m  140.227861  59.890379   95.53561  0.00261160179658  -0.1014712
 2026-Apr-30 13:00:02.880  m  133.547366  48.911014   98.65473  0.00263561358759  -0.1734390
 2026-May-01 13:00:02.880  m  129.264623  37.886991   99.81944  0.00265807636749  -0.2371588
 2026-May-02 13:00:02.880  m  126.021872  26.937844   99.07398  0.00267826410513  -0.2912453
 2026-May-03 13:00:02.880  m  123.243319  16.099674   96.52089  0.00269523992986  -0.3347759
 2026-May-04 13:00:02.880  m  120.619142   5.375800   92.30644  0.00270790681564  -0.3671504
 2026-May-05 13:00:02.880     117.932778  -5.247415   86.60620  0.00271510545162  -0.3879409
 2026-May-06 13:00:02.880     114.979926 -15.792390   79.61355  0.00271574465573  -0.3967539
 2026-May-07 13:00:02.880     111.503702 -26.281312   71.53371  0.00270894911614  -0.3931263
 2026-May-08 13:00:02.880     107.099782 -36.719653   62.58492  0.00269421066127  -0.3764758
 2026-May-09 13:00:02.880     101.014280 -47.058089   53.00753  0.00267153057928  -0.3461295
 2026-May-10 13:00:02.880      91.625296 -57.087686   43.08020  0.00264153984620  -0.3014527
 2026-May-11 13:00:02.880      75.075949 -66.099338   33.14080  0.00260558032627  -0.2421030
 2026-May-12 13:00:02.880      44.150464 -71.827053   23.60623  0.00256572336455  -0.1684171
 2026-May-13 13:00:02.880       4.419639 -70.286308   14.98140  0.00252469545176  -0.0819021
 2026-May-14 13:00:02.880     338.162592 -62.109412    7.84348  0.00248568026084   0.0142727
 2026-May-15 13:00:02.880     323.873854 -50.915952    2.78827  0.00245198218011   0.1149863
 2026-May-16 13:00:02.880     314.991427 -38.439871    0.33615  0.00242657657859   0.2133385
 2026-May-17 13:00:02.880     308.494559 -25.380343    0.81748  0.00241163110670   0.3014571
 2026-May-18 13:00:02.880     303.041476 -12.127255    4.27960  0.00240813131656   0.3718357
 2026-May-19 13:00:02.880  m  297.910912   1.035437   10.45977  0.00241574012555   0.4187638
 2026-May-20 13:00:02.880  m  292.587899  13.876221   18.83942  0.00243294538897   0.4392884
 2026-May-21 13:00:02.880  m  286.555752  26.192019   28.75368  0.00245743898401   0.4333865
 2026-May-22 13:00:02.880  m  279.116885  37.770796   39.50813  0.00248659244382   0.4034344
 2026-May-23 13:00:02.880  m  269.142684  48.309861   50.46454  0.00251788868068   0.3533392
 2026-May-24 13:00:02.880  m  254.737589  57.240299   61.08318  0.00254922085473   0.2876918
 2026-May-25 13:00:02.880  m  233.513859  63.428041   70.93042  0.00257903388619   0.2111446
 2026-May-26 13:00:02.880  m  206.292137  65.236548   79.66751  0.00260632953748   0.1280453
 2026-May-27 13:00:02.880  m  180.834611  62.150891   87.03436  0.00263057564972   0.0422703
 2026-May-28 13:00:02.880  m  162.451637  55.678473   92.83603  0.00265156208751  -0.0428199
 2026-May-29 13:00:02.880  m  149.914248  47.474468   96.93444  0.00266924016074  -0.1243662
 2026-May-30 13:00:02.880  m  140.875681  38.452073   99.24464  0.00268357469111  -0.1999714
 2026-May-31 13:00:02.880  m  133.801371  29.040796   99.73297  0.00269443042557  -0.2676485
 2026-Jun-01 13:00:02.880  m  127.804618  19.447432   98.41510  0.00270150714538  -0.3257590
 2026-Jun-02 13:00:02.880  m  122.343728   9.778619   95.35234  0.00270433033270  -0.3729373
 2026-Jun-03 13:00:02.880  m  117.040381   0.094710   90.64625  0.00270229696219  -0.4080025
 2026-Jun-04 13:00:02.880     111.574077  -9.562670   84.43307  0.00269476967954  -0.4298640
 2026-Jun-05 13:00:02.880     105.605327 -19.149811   76.88012  0.00268120799067  -0.4374408
 2026-Jun-06 13:00:02.880      98.694428 -28.594631   68.18661  0.00266132210464  -0.4296158
 2026-Jun-07 13:00:02.880      90.185378 -37.750466   58.59102  0.00263523284693  -0.4052608
 2026-Jun-08 13:00:02.880      79.031857 -46.303837   48.38538  0.00260361808626  -0.3633676
 2026-Jun-09 13:00:02.880      63.658632 -53.594213   37.93485  0.00256782104027  -0.3033249
 2026-Jun-10 13:00:02.880      42.580648 -58.372056   27.69655  0.00252988864736  -0.2253588
 2026-Jun-11 13:00:02.880      17.265502 -59.006254   18.22672  0.00249250200220  -0.1311037
$$EOE
